[{"OBJECT_NAME":"QIANFAN-27","OBJECT_ID":"2024-185J","EPOCH":"2026-03-09T22:56:55.395744","MEAN_MOTION":14.27448593,"ECCENTRICITY":0.00081881,"INCLINATION":88.9753,"RA_OF_ASC_NODE":66.6975,"ARG_OF_PERICENTER":20.0445,"MEAN_ANOMALY":340.107,"EPHEMERIS_TYPE":0,"CLASSIFICATION_TYPE":"U","NORAD_CAT_ID":61560,"ELEMENT_SET_NO":999,"REV_AT_EPOCH":8260,"BSTAR":0.00025107237,"MEAN_MOTION_DOT":6.31e-6,"MEAN_MOTION_DDOT":0},{"OBJECT_NAME":"NOAA 16 DEB","OBJECT_ID":"2000-055KW","EPOCH":"2026-03-09T04:30:37.267776","MEAN_MOTION":14.31513206,"ECCENTRICITY":0.0017516,"INCLINATION":98.7272,"RA_OF_ASC_NODE":160.3335,"ARG_OF_PERICENTER":258.9334,"MEAN_ANOMALY":100.9879,"EPHEMERIS_TYPE":0,"CLASSIFICATION_TYPE":"U","NORAD_CAT_ID":41417,"ELEMENT_SET_NO":999,"REV_AT_EPOCH":51898,"BSTAR":0.0020165712,"MEAN_MOTION_DOT":5.327e-5,"MEAN_MOTION_DDOT":0}]
